[{"OBJECT_NAME":"SPIRONE","OBJECT_ID":"2025-274H","EPOCH":"2026-03-09T18:01:36.945120","MEAN_MOTION":14.93072072,"ECCENTRICITY":0.00119665,"INCLINATION":97.7435,"RA_OF_ASC_NODE":359.5247,"ARG_OF_PERICENTER":353.7886,"MEAN_ANOMALY":6.3183,"EPHEMERIS_TYPE":0,"CLASSIFICATION_TYPE":"U","NORAD_CAT_ID":66657,"ELEMENT_SET_NO":999,"REV_AT_EPOCH":1538,"BSTAR":0.00040236773,"MEAN_MOTION_DOT":4.139e-5,"MEAN_MOTION_DDOT":0},{"OBJECT_NAME":"COROT","OBJECT_ID":"2006-063A","EPOCH":"2026-03-09T22:30:11.406528","MEAN_MOTION":14.50154879,"ECCENTRICITY":0.01887104,"INCLINATION":90.0985,"RA_OF_ASC_NODE":35.9409,"ARG_OF_PERICENTER":102.6453,"MEAN_ANOMALY":259.5926,"EPHEMERIS_TYPE":0,"CLASSIFICATION_TYPE":"U","NORAD_CAT_ID":29678,"ELEMENT_SET_NO":999,"REV_AT_EPOCH":59,"BSTAR":0.00030077955,"MEAN_MOTION_DOT":1.487e-5,"MEAN_MOTION_DDOT":0}]
